HAWK-A                  
1 43765U 18099H   26204.11237748  .00007566  00000+0  30033-3 0  9994
2 43765  97.3896 255.8841 0035432 156.4668 203.8200 15.25042895418576
HAWK-B                  
1 43794U 18099AN  26204.11147363  .00006635  00000+0  27966-3 0  9996
2 43794  97.3944 255.2226 0032171 174.1924 185.9692 15.23183557418509
HAWK-C                  
1 43799U 18099AT  26204.13763823  .00008782  00000+0  31061-3 0  9994
2 43799  97.3870 257.0009 0041038 156.0749 204.2410 15.28587276419401
HAWK-2C                 
1 47502U 21006CT  26204.07437173  .00006625  00000+0  19686-3 0  9994
2 47502  97.2263 247.6735 0008584  78.5306 281.6901 15.35060777305003
HAWK-2A                 
1 47505U 21006CW  26204.07647556  .00008004  00000+0  23708-3 0  9998
2 47505  97.2307 248.3751 0008147  82.1128 278.1040 15.35092659305008
HAWK-2B                 
1 47508U 21006CZ  26204.06934263  .00007867  00000+0  23212-3 0  9990
2 47508  97.2178 246.6431 0008688  80.4800 279.7426 15.35218400305000
HAWK-3B                 
1 48931U 21059BE  26204.12022624  .00048781  00000+0  36650-3 0  9995
2 48931  97.6638  44.3065 0005087 171.9825 188.1520 15.72436622283490
HAWK-3C                 
1 48948U 21059BX  26204.11991396  .00051915  00000+0  38987-3 0  9991
2 48948  97.6753  50.0517 0005424 171.4962 188.6393 15.72431800283490
HAWK-3A                 
1 48957U 21059CG  26204.11978748  .00051820  00000+0  38891-3 0  9996
2 48957  97.6701  47.2287 0005636 177.0852 183.0445 15.72445401283499
HAWK-5C                 
1 52754U 22057Y   26203.89243318  .00020726  00000+0  33930-3 0  9997
2 52754  97.6627   5.9014 0002354 306.9975  53.1061 15.52531107231882
HAWK-5B                 
1 52756U 22057AA  26203.89226676  .00021804  00000+0  35679-3 0  9997
2 52756  97.6637   4.2560 0003030 293.6813  66.4121 15.52530461231884
HAWK-5A                 
1 52757U 22057AB  26203.69869860  .00019598  00000+0  32108-3 0  9995
2 52757  97.6635   4.8796 0002924 300.9143  59.1822 15.52520606231853
HAWK-6B                 
1 55324U 23011A   26204.18090474  .00004270  00000+0  18476-3 0  9994
2 55324  40.4981 142.0832 0004586 280.0862  79.9430 15.23205605193336
HAWK-6C                 
1 55326U 23011C   26204.18027272  .00004091  00000+0  17737-3 0  9992
2 55326  40.4973 138.9222 0005052 275.8701  84.1532 15.23204661193342
HAWK-6A                 
1 55327U 23011D   26204.24587340  .00004180  00000+0  18102-3 0  9993
2 55327  40.4985 140.1672 0004779 272.9929  87.0333 15.23206114193352
HAWK-7A                 
1 56191U 23054P   26204.20479234  .00005357  00000+0  20062-3 0  9993
2 56191  97.2652  90.6260 0000945 266.9851  93.1281 15.27693531182527
